OBJECT_NAME,OBJECT_ID,EPOCH,MEAN_MOTION,ECCENTRICITY,INCLINATION,RA_OF_ASC_NODE,ARG_OF_PERICENTER,MEAN_ANOMALY,EPHEMERIS_TYPE,CLASSIFICATION_TYPE,NORAD_CAT_ID,ELEMENT_SET_NO,REV_AT_EPOCH,BSTAR,MEAN_MOTION_DOT,MEAN_MOTION_DDOT
STARLINK-32445,2024-184Q,2026-06-13T15:15:26.762688,15.34390403,.0001043,53.1616,287.7993,98.3978,261.7143,0,U,61546,999,9320,.14723E-4,.121E-5,0
STARLINK-32411,2024-184R,2026-06-14T04:00:01.998720,15.34369532,.0001118,53.1608,285.7230,78.3173,127.0579,0,U,61547,999,580,.1809E-2,.61184E-3,0
STARLINK-32424,2024-184S,2026-06-14T00:47:18.468096,15.34395082,.0001225,53.1612,286.0127,96.3762,263.7380,0,U,61548,999,9326,-.3612E-5,-.498E-5,0
STARLINK-32389,2024-184T,2026-06-14T01:46:46.402752,15.30192038,.0001378,53.1620,286.2673,89.8458,270.2701,0,U,61549,999,9326,.18183E-4,.179E-5,0
STARLINK-32476,2024-184U,2026-06-13T13:59:50.015328,15.34383448,.0001379,53.1615,288.1816,86.0189,274.0971,0,U,61550,999,9319,.48283E-4,.1254E-4,0
STARLINK-32366,2024-184V,2026-06-13T15:06:21.369600,15.34393291,.0001161,53.1617,287.7609,88.8180,271.2956,0,U,61551,999,9320,-.1285E-4,-.81E-5,0
STARLINK-11356 [DTC],2024-187A,2026-06-13T08:15:43.263072,15.69694753,.00010557,53.1590,184.7343,79.8017,280.3120,0,U,61574,999,9580,-.1432407E-4,-.2322E-4,0
STARLINK-11376 [DTC],2024-187B,2026-06-13T08:08:39.041664,15.69698655,.00012385,53.1592,184.7047,118.8526,241.2616,0,U,61575,999,9572,-.4759931E-5,-.1165E-4,0
STARLINK-11372 [DTC],2024-187C,2026-06-13T18:43:22.120896,15.69703456,.00010535,53.1583,182.4732,66.5333,293.5796,0,U,61576,999,9584,.652351E-6,-.509E-5,0
STARLINK-11375 [DTC],2024-187D,2026-06-13T18:36:18.385920,15.69701511,.0001215,53.1593,182.4439,55.5955,304.5177,0,U,61577,999,9584,-.7457048E-5,-.1492E-4,0
STARLINK-11285 [DTC],2024-187E,2026-06-14T05:11:01.214592,15.69708500,.0000827,53.1590,180.2111,81.0573,279.0538,0,U,61578,999,9586,.62403E-5,.168E-5,0
STARLINK-11275 [DTC],2024-187F,2026-06-14T05:03:57.127104,15.69710232,.0000829,53.1578,180.1772,91.6261,268.4852,0,U,61579,999,9586,.97896E-5,.598E-5,0
STARLINK-11342 [DTC],2024-187G,2026-06-14T04:56:53.118240,15.69715021,.0000852,53.1587,180.1438,76.5534,283.5579,0,U,61580,999,9596,.11757E-4,.837E-5,0
STARLINK-11374 [DTC],2024-187H,2026-06-14T04:49:58.149408,15.69711731,.0000769,53.1579,180.8415,106.4953,253.6150,0,U,61581,999,9595,.10748E-4,.714E-5,0
STARLINK-11373 [DTC],2024-187J,2026-06-14T04:42:54.480960,15.69708908,.0000915,53.1580,180.8094,48.8569,311.2528,0,U,61582,999,9590,.44678E-5,-.47E-6,0
STARLINK-11368 [DTC],2024-187K,2026-06-14T04:35:51.326592,15.69694904,.0001274,53.1590,180.7855,53.5334,306.5801,0,U,61583,999,9585,.10698E-4,.707E-5,0
STARLINK-11370 [DTC],2024-187L,2026-06-14T04:28:46.642080,15.69710405,.0000941,53.1590,180.7470,74.1867,285.9254,0,U,61584,999,9590,.74513E-5,.314E-5,0
STARLINK-11361 [DTC],2024-187M,2026-06-13T14:36:33.673248,15.69746414,.0001076,53.1561,183.5392,99.8847,260.2292,0,U,61585,999,9581,.10753E-2,.131967E-2,0
STARLINK-11360 [DTC],2024-187N,2026-06-13T08:22:46.733664,15.69696866,.00012762,53.1586,184.7555,47.2162,312.8963,0,U,61586,999,9582,-.9796536E-5,-.1775E-4,0
STARLINK-32353,2024-187P,2026-06-13T22:58:10.650144,15.34358995,.0000608,53.1600,336.3839,17.1045,342.9978,0,U,61587,999,9378,.75774E-3,.25278E-3,0
STARLINK-32325,2024-187Q,2026-06-13T18:44:04.487136,15.34382923,.00012778,53.1599,337.4289,107.9060,252.2082,0,U,61588,999,9381,-.22949026E-4,-.1151E-4,0
STARLINK-32416,2024-187R,2026-06-14T03:20:28.239072,15.34382371,.000099,53.1608,321.1831,98.8761,261.2354,0,U,61589,999,9407,-.20824E-4,-.1079E-4,0
STARLINK-32413,2024-187S,2026-06-14T04:25:01.469856,15.34386251,.0001071,53.1611,335.6654,91.6462,268.4664,0,U,61590,999,9387,.29386E-4,.616E-5,0
STARLINK-32409,2024-187T,2026-06-13T17:00:15.444576,15.34382469,.00012721,53.1626,323.4713,98.2403,261.8743,0,U,61591,999,9400,-.12956023E-4,-.814E-5,0
STARLINK-32422,2024-187U,2026-06-14T03:38:38.431680,15.34386839,.0000853,53.1617,321.2550,90.4938,269.6162,0,U,61592,999,9407,.20847E-4,.328E-5,0
STARLINK-32397,2024-187V,2026-06-13T18:43:15.049920,15.34394514,.00010718,53.1611,335.2856,75.2748,284.8374,0,U,61593,999,9384,-.91093247E-4,-.3452E-4,0
STARLINK-32302,2024-191A,2026-06-14T03:53:39.402240,15.27575714,.0000549,42.9991,329.4213,279.6534,80.4255,0,U,61621,999,9304,.5319E-4,.1202E-4,0
STARLINK-32364,2024-191B,2026-06-13T04:36:06.507936,15.27584332,.00001632,43.0068,335.0367,30.5222,329.5639,0,U,61622,999,9214,.49228201E-4,.1093E-4,0
STARLINK-32331,2024-191C,2026-06-14T04:26:20.213088,15.27520758,.0002766,43.0097,333.0588,263.8656,96.1881,0,U,61623,999,9225,.43231E-3,.11632E-3,0
STARLINK-32398,2024-191D,2026-06-14T04:25:07.078080,15.27572869,.0001273,43.0074,329.5821,243.4292,116.6430,0,U,61624,999,9229,-.31327E-4,-.1124E-4,0
