STARLINK-32445          
1 61546U 24184Q   26164.63572642  .00000121  00000+0  14723-4 0  9999
2 61546  53.1616 287.7993 0001043  98.3978 261.7143 15.34390403 93203
STARLINK-32411          
1 61547U 24184R   26165.16668980  .00061184  00000+0  18090-2 0  9995
2 61547  53.1608 285.7230 0001118  78.3173 127.0579 15.34369532  5800
STARLINK-32424          
1 61548U 24184S   26165.03285264 -.00000498  00000+0 -36120-5 0  9992
2 61548  53.1612 286.0127 0001225  96.3762 263.7380 15.34395082 93262
STARLINK-32389          
1 61549U 24184T   26165.07414818  .00000179  00000+0  18183-4 0  9998
2 61549  53.1620 286.2673 0001378  89.8458 270.2701 15.30192038 93260
STARLINK-32476          
1 61550U 24184U   26164.58321777  .00001254  00000+0  48283-4 0  9995
2 61550  53.1615 288.1816 0001379  86.0189 274.0971 15.34383448 93191
STARLINK-32366          
1 61551U 24184V   26164.62941400 -.00000810  00000+0 -12850-4 0  9992
2 61551  53.1617 287.7609 0001161  88.8180 271.2956 15.34393291 93200
STARLINK-11356 [DTC]    
1 61574U 24187A   26164.34425073 -.00002322  00000+0 -14324-4 0  9990
2 61574  53.1590 184.7343 0001055  79.8017 280.3120 15.69694753 95804
STARLINK-11376 [DTC]    
1 61575U 24187B   26164.33934076 -.00001165  00000+0 -47599-5 0  9993
2 61575  53.1592 184.7047 0001238 118.8526 241.2616 15.69698655 95722
STARLINK-11372 [DTC]    
1 61576U 24187C   26164.78011714 -.00000509  00000+0  65235-6 0  9996
2 61576  53.1583 182.4732 0001053  66.5333 293.5796 15.69703456 95847
STARLINK-11375 [DTC]    
1 61577U 24187D   26164.77521280 -.00001492  00000+0 -74570-5 0  9994
2 61577  53.1593 182.4439 0001215  55.5955 304.5177 15.69701511 95847
STARLINK-11285 [DTC]    
1 61578U 24187E   26165.21598628  .00000168  00000+0  62403-5 0  9994
2 61578  53.1590 180.2111 0000827  81.0573 279.0538 15.69708500 95860
STARLINK-11275 [DTC]    
1 61579U 24187F   26165.21107786  .00000598  00000+0  97896-5 0  9997
2 61579  53.1578 180.1772 0000829  91.6261 268.4852 15.69710232 95868
STARLINK-11342 [DTC]    
1 61580U 24187G   26165.20617035  .00000837  00000+0  11757-4 0  9998
2 61580  53.1587 180.1438 0000852  76.5534 283.5579 15.69715021 95966
STARLINK-11374 [DTC]    
1 61581U 24187H   26165.20136747  .00000714  00000+0  10748-4 0  9998
2 61581  53.1579 180.8415 0000769 106.4953 253.6150 15.69711731 95951
STARLINK-11373 [DTC]    
1 61582U 24187J   26165.19646390 -.00000047  00000+0  44678-5 0  9997
2 61582  53.1580 180.8094 0000915  48.8569 311.2528 15.69708908 95909
STARLINK-11368 [DTC]    
1 61583U 24187K   26165.19156628  .00000707  00000+0  10698-4 0  9994
2 61583  53.1590 180.7855 0001274  53.5334 306.5801 15.69694904 95852
STARLINK-11370 [DTC]    
1 61584U 24187L   26165.18665095  .00000314  00000+0  74513-5 0  9998
2 61584  53.1590 180.7470 0000941  74.1867 285.9254 15.69710405 95909
STARLINK-11361 [DTC]    
1 61585U 24187M   26164.60872307  .00131967  00000+0  10753-2 0  9993
2 61585  53.1561 183.5392 0001076  99.8847 260.2292 15.69746414 95811
STARLINK-11360 [DTC]    
1 61586U 24187N   26164.34915201 -.00001775  00000+0 -97965-5 0  9994
2 61586  53.1586 184.7555 0001276  47.2162 312.8963 15.69696866 95827
STARLINK-32353          
1 61587U 24187P   26164.95706771  .00025278  00000+0  75774-3 0  9996
2 61587  53.1600 336.3839 0000608  17.1045 342.9978 15.34358995 93782
STARLINK-32325          
1 61588U 24187Q   26164.78060749 -.00001151  00000+0 -22949-4 0  9999
2 61588  53.1599 337.4289 0001277 107.9060 252.2082 15.34382923 93810
STARLINK-32416          
1 61589U 24187R   26165.13921573 -.00001079  00000+0 -20824-4 0  9990
2 61589  53.1608 321.1831 0000990  98.8761 261.2354 15.34382371 94070
STARLINK-32413          
1 61590U 24187S   26165.18404479  .00000616  00000+0  29386-4 0  9994
2 61590  53.1611 335.6654 0001071  91.6462 268.4664 15.34386251 93870
STARLINK-32409          
1 61591U 24187T   26164.70851209 -.00000814  00000+0 -12956-4 0  9996
2 61591  53.1626 323.4713 0001272  98.2403 261.8743 15.34382469 94007
STARLINK-32422          
1 61592U 24187U   26165.15183370  .00000328  00000+0  20847-4 0  9990
2 61592  53.1617 321.2550 0000853  90.4938 269.6162 15.34386839 94077
STARLINK-32397          
1 61593U 24187V   26164.78003530 -.00003452  00000+0 -91093-4 0  9992
2 61593  53.1611 335.2856 0001071  75.2748 284.8374 15.34394514 93846
STARLINK-32302          
1 61621U 24191A   26165.16226160  .00001202  00000+0  53190-4 0  9993
2 61621  42.9991 329.4213 0000549 279.6534  80.4255 15.27575714 93044
STARLINK-32364          
1 61622U 24191B   26164.19174199  .00001093  00000+0  49228-4 0  9995
2 61622  43.0068 335.0367 0000163  30.5222 329.5639 15.27584332 92144
STARLINK-32331          
1 61623U 24191C   26165.18495617  .00011632  00000+0  43231-3 0  9994
2 61623  43.0097 333.0588 0002766 263.8656  96.1881 15.27520758 92253
STARLINK-32398          
1 61624U 24191D   26165.18410970 -.00001124  00000+0 -31327-4 0  9995
2 61624  43.0074 329.5821 0001273 243.4292 116.6430 15.27572869 92293
